ALOS (DAICHI)           
1 28931U 06002A   26083.88805137  .00001324  00000+0  22976-3 0  9998
2 28931  98.1242  39.7700 0000756  98.5469 261.5822 14.69854515 75710
H-2A R/B                
1 28932U 06002B   26083.98229447  .00008990  00000+0  44630-3 0  9991
2 28932  98.2441 232.3273 0052329 188.5964 171.4376 15.16746520 96751
RESURS-DK 1             
1 29228U 06021A   26083.74344806  .00002404  00000+0  14252-3 0  9993
2 29228  69.9339 198.0817 0000781  79.2004 280.9250 15.12841136 89809
CZ-4B R/B               
1 29507U 06046C   26083.84653666  .00004119  00000+0  20894-3 0  9992
2 29507  97.5564 128.7141 0032355 212.5419 147.3820 15.17054374 62344
CZ-2C R/B               
1 31114U 07010B   26083.94314309  .00000131  00000+0  79409-4 0  9997
2 31114  98.3995 196.4586 0057929 249.3816 110.1142 14.20251483981883
COSMO-SKYMED 1          
1 31598U 07023A   26083.97533007  .00002703  00000+0  24231-3 0  9997
2 31598  97.8880 275.1320 0001032  89.6361 270.4978 14.96644486 17194
COSMOS 2428             
1 31792U 07029A   26083.96802868 -.00000018  00000+0  16092-4 0  9997
2 31792  70.9440 171.2775 0009632 261.4650  98.5380 14.12948070966259
SL-16 R/B               
1 31793U 07029B   26083.92757740  .00000184  00000+0  11988-3 0  9993
2 31793  70.9753 140.3552 0002549 277.3252 255.2018 14.14842257967524
KORONAS-FOTON           
1 33504U 09003A   26083.93444091  .00012608  00000+0  27776-3 0  9998
2 33504  82.4279 260.0210 0011816 100.3246 259.9334 15.43714932948097
CZ-2C R/B               
1 37731U 11030B   26083.87022937  .00001466  00000+0  19078-3 0  9997
2 37731  97.8570  40.8325 0051270 301.9877  74.4370 14.81274019792348
H-2A R/B                
1 38341U 12025E   26083.91948523  .00003311  00000+0  30162-3 0  9991
2 38341  98.4757  52.1886 0042733 262.6619  96.9741 14.95270697750493
SHIJIAN-16 (SJ-16)      
1 39358U 13057A   26083.98060190  .00002282  00000+0  22513-3 0  9995
2 39358  74.9725 156.1423 0015228  72.6877 287.5976 14.92410499673789
SL-4 R/B                
1 39679U 14021B   26083.81928069  .00016082  00000+0  34963-3 0  9998
2 39679  51.6056 263.4395 0096097 158.0915 202.4220 15.39681109658601
ALOS-2                  
1 39766U 14029A   26083.93602513  .00001037  00000+0  14585-3 0  9991
2 39766  97.9186 182.3110 0001829 106.7561 253.3852 14.79430190639122
YAOGAN-29               
1 41038U 15069A   26083.97562455  .00001066  00000+0  13787-3 0  9990
2 41038  98.0121 112.4446 0000791  13.5286 346.5949 14.83013785558146
ASTRO-H (HITOMI)        
1 41337U 16012A   26083.83723089  .00002837  00000+0  16414-3 0  9995
2 41337  30.9989 258.7902 0009606 123.8688 236.2865 15.10096778554525
